{"type": "FeatureCollection", "features": [ {"type": "Feature", "properties": {"norad_id": 34738, "name": "COSMOS 2251 DEB", "group": "cosmos-2251-debris", "lat": -59.06607072174926, "lon": -27.304917487523277, "alt_km": 713.8371944490573, "timestamp": "2025-12-22T23:36:21.111741+00:00", "meta": {"OBJECT_NAME": "COSMOS 2251 DEB", "OBJECT_ID": "1993-036ZG", "EPOCH": "2025-12-22T11:10:15.167712", "MEAN_MOTION": 14.46323814, "ECCENTRICITY": 0.00475472, "INCLINATION": 74.0153, "RA_OF_ASC_NODE": 125.0885, "ARG_OF_PERICENTER": 269.5555, "MEAN_ANOMALY": 157.1247, "EPHEMERIS_TYPE": 0, "CLASSIFICATION_TYPE": "U", "NORAD_CAT_ID": 34738, "ELEMENT_SET_NO": 999, "REV_AT_EPOCH": 87999, "BSTAR": 0.00030077853, "MEAN_MOTION_DOT": 1.066e-05, "MEAN_MOTION_DDOT": 0}, "tle": {"line1": "1 34738U 93036ZG  25356.46545333  .00001066  00000+0  30078-3 0  9993", "line2": "2 34738  74.0153 125.0885 0047547 269.5555 157.1247 14.46323814879995"}}, "geometry": {"type": "Point", "coordinates": [-27.304917487523277, -59.06607072174926]}}, {"type": "Feature", "properties": {"norad_id": 34750, "name": "COSMOS 2251 DEB", "group": "cosmos-2251-debris", "lat": -53.023583829059525, "lon": 24.484658174245478, "alt_km": 701.8143197101308, "timestamp": "2025-12-22T23:36:21.111752+00:00", "meta": {"OBJECT_NAME": "COSMOS 2251 DEB", "OBJECT_ID": "1993-036ZU", "EPOCH": "2025-12-22T12:48:37.447200", "MEAN_MOTION": 14.61412176, "ECCENTRICITY": 0.0038418, "INCLINATION": 74.1065, "RA_OF_ASC_NODE": 183.1044, "ARG_OF_PERICENTER": 132.8514, "MEAN_ANOMALY": 257.3018, "EPHEMERIS_TYPE": 0, "CLASSIFICATION_TYPE": "U", "NORAD_CAT_ID": 34750, "ELEMENT_SET_NO": 999, "REV_AT_EPOCH": 88374, "BSTAR": 0.00113959, "MEAN_MOTION_DOT": 5.675e-05, "MEAN_MOTION_DDOT": 0}, "tle": {"line1": "1 34750U 93036ZU  25356.53376675  .00005675  00000+0  11396-2 0  9997", "line2": "2 34750  74.1065 183.1044 0038418 132.8514 257.3018 14.61412176883742"}}, "geometry": {"type": "Point", "coordinates": [24.484658174245478, -53.023583829059525]}}, {"type": "Feature", "properties": {"norad_id": 34752, "name": "COSMOS 2251 DEB", "group": "cosmos-2251-debris", "lat": 0.7546771119396636, "lon": -20.02981634953263, "alt_km": 576.9134821494463, "timestamp": "2025-12-22T23:36:21.111762+00:00", "meta": {"OBJECT_NAME": "COSMOS 2251 DEB", "OBJECT_ID": "1993-036ZW", "EPOCH": "2025-12-21T09:11:20.743008", "MEAN_MOTION": 15.00105558, "ECCENTRICITY": 0.00475006, "INCLINATION": 74.0131, "RA_OF_ASC_NODE": 343.0108, "ARG_OF_PERICENTER": 108.6219, "MEAN_ANOMALY": 252.0135, "EPHEMERIS_TYPE": 0, "CLASSIFICATION_TYPE": "U", "NORAD_CAT_ID": 34752, "ELEMENT_SET_NO": 999, "REV_AT_EPOCH": 89979, "BSTAR": 0.00079721922, "MEAN_MOTION_DOT": 0.00010156, "MEAN_MOTION_DDOT": 0}, "tle": {"line1": "1 34752U 93036ZW  25355.38287897  .00010156  00000+0  79722-3 0  9996", "line2": "2 34752  74.0131 343.0108 0047500 108.6219 252.0135 15.00105558899791"}}, "geometry": {"type": "Point", "coordinates": [-20.02981634953263, 0.7546771119396636]}}, {"type": "Feature", "properties": {"norad_id": 34754, "name": "COSMOS 2251 DEB", "group": "cosmos-2251-debris", "lat": -55.47007470357198, "lon": -175.941801519794, "alt_km": 743.6996260664237, "timestamp": "2025-12-22T23:36:21.111773+00:00", "meta": {"OBJECT_NAME": "COSMOS 2251 DEB", "OBJECT_ID": "1993-036ZY", "EPOCH": "2025-12-22T14:01:00.618816", "MEAN_MOTION": 14.40494534, "ECCENTRICITY": 0.00299317, "INCLINATION": 74.0293, "RA_OF_ASC_NODE": 209.393, "ARG_OF_PERICENTER": 323.6263, "MEAN_ANOMALY": 66.4846, "EPHEMERIS_TYPE": 0, "CLASSIFICATION_TYPE": "U", "NORAD_CAT_ID": 34754, "ELEMENT_SET_NO": 999, "REV_AT_EPOCH": 88275, "BSTAR": 0.00017314509, "MEAN_MOTION_DOT": 5.27e-06, "MEAN_MOTION_DDOT": 0}, "tle": {"line1": "1 34754U 93036ZY  25356.58403494  .00000527  00000+0  17315-3 0  9995", "line2": "2 34754  74.0293 209.3930 0029931 323.6263  66.4846 14.40494534882757"}}, "geometry": {"type": "Point", "coordinates": [-175.941801519794, -55.47007470357198]}}, {"type": "Feature", "properties": {"norad_id": 34755, "name": "COSMOS 2251 DEB", "group": "cosmos-2251-debris", "lat": -19.31601458358413, "lon": -92.2391610855287, "alt_km": 866.2524004914676, "timestamp": "2025-12-22T23:36:21.111784+00:00", "meta": {"OBJECT_NAME": "COSMOS 2251 DEB", "OBJECT_ID": "1993-036ZZ", "EPOCH": "2025-12-20T18:30:29.240064", "MEAN_MOTION": 13.50572591, "ECCENTRICITY": 0.04081275, "INCLINATION": 73.9255, "RA_OF_ASC_NODE": 277.1155, "ARG_OF_PERICENTER": 295.5233, "MEAN_ANOMALY": 88.1239, "EPHEMERIS_TYPE": 0, "CLASSIFICATION_TYPE": "U", "NORAD_CAT_ID": 34755, "ELEMENT_SET_NO": 999, "REV_AT_EPOCH": 82632, "BSTAR": 0.00057435404, "MEAN_MOTION_DOT": 5.95e-06, "MEAN_MOTION_DDOT": 0}, "tle": {"line1": "1 34755U 93036ZZ  25354.77117176  .00000595  00000+0  57435-3 0  9996", "line2": "2 34755  73.9255 277.1155 0408127 295.5233  88.1239 13.50572591826326"}}, "geometry": {"type": "Point", "coordinates": [-92.2391610855287, -19.31601458358413]}}, {"type": "Feature", "properties": {"norad_id": 34756, "name": "COSMOS 2251 DEB", "group": "cosmos-2251-debris", "lat": 40.35586745416617, "lon": -106.58481608304696, "alt_km": 1260.7551136324946, "timestamp": "2025-12-22T23:36:21.111795+00:00", "meta": {"OBJECT_NAME": "COSMOS 2251 DEB", "OBJECT_ID": "1993-036AAA", "EPOCH": "2025-12-22T12:23:20.340096", "MEAN_MOTION": 13.6726693, "ECCENTRICITY": 0.03457457, "INCLINATION": 74.0031, "RA_OF_ASC_NODE": 88.2919, "ARG_OF_PERICENTER": 322.0021, "MEAN_ANOMALY": 35.7148, "EPHEMERIS_TYPE": 0, "CLASSIFICATION_TYPE": "U", "NORAD_CAT_ID": 34756, "ELEMENT_SET_NO": 999, "REV_AT_EPOCH": 83555, "BSTAR": 0.0010168028, "MEAN_MOTION_DOT": 1.267e-05, "MEAN_MOTION_DDOT": 0}, "tle": {"line1": "1 34756U 93036AAA 25356.51620764  .00001267  00000+0  10168-2 0  9991", "line2": "2 34756  74.0031  88.2919 0345745 322.0021  35.7148 13.67266930835554"}}, "geometry": {"type": "Point", "coordinates": [-106.58481608304696, 40.35586745416617]}}, {"type": "Feature", "properties": {"norad_id": 34758, "name": "COSMOS 2251 DEB", "group": "cosmos-2251-debris", "lat": -74.05234211057372, "lon": -171.45533550631072, "alt_km": 1246.604966260984, "timestamp": "2025-12-22T23:36:21.111805+00:00", "meta": {"OBJECT_NAME": "COSMOS 2251 DEB", "OBJECT_ID": "1993-036AAC", "EPOCH": "2025-12-22T11:40:44.941728", "MEAN_MOTION": 13.5810493, "ECCENTRICITY": 0.03821547, "INCLINATION": 74.1074, "RA_OF_ASC_NODE": 283.8104, "ARG_OF_PERICENTER": 45.2456, "MEAN_ANOMALY": 317.9086, "EPHEMERIS_TYPE": 0, "CLASSIFICATION_TYPE": "U", "NORAD_CAT_ID": 34758, "ELEMENT_SET_NO": 999, "REV_AT_EPOCH": 83042, "BSTAR": 0.0016692272, "MEAN_MOTION_DOT": 1.928e-05, "MEAN_MOTION_DDOT": 0}, "tle": {"line1": "1 34758U 93036AAC 25356.48663127  .00001928  00000+0  16692-2 0  9991", "line2": "2 34758  74.1074 283.8104 0382154  45.2456 317.9086 13.58104930830422"}}, "geometry": {"type": "Point", "coordinates": [-171.45533550631072, -74.05234211057372]}}, {"type": "Feature", "properties": {"norad_id": 34760, "name": "COSMOS 2251 DEB", "group": "cosmos-2251-debris", "lat": -73.7857425428827, "lon": -176.63159623846622, "alt_km": 805.6507032743339, "timestamp": "2025-12-22T23:36:21.111816+00:00", "meta": {"OBJECT_NAME": "COSMOS 2251 DEB", "OBJECT_ID": "1993-036AAE", "EPOCH": "2025-12-21T02:27:21.793248", "MEAN_MOTION": 14.19589207, "ECCENTRICITY": 0.00971621, "INCLINATION": 74.0634, "RA_OF_ASC_NODE": 287.4354, "ARG_OF_PERICENTER": 337.728, "MEAN_ANOMALY": 39.9901, "EPHEMERIS_TYPE": 0, "CLASSIFICATION_TYPE": "U", "NORAD_CAT_ID": 34760, "ELEMENT_SET_NO": 999, "REV_AT_EPOCH": 86807, "BSTAR": 0.00035110711, "MEAN_MOTION_DOT": 7.51e-06, "MEAN_MOTION_DDOT": 0}, "tle": {"line1": "1 34760U 93036AAE 25355.10233557  .00000751  00000+0  35111-3 0  9993", "line2": "2 34760  74.0634 287.4354 0097162 337.7280  39.9901 14.19589207868070"}}, "geometry": {"type": "Point", "coordinates": [-176.63159623846622, -73.7857425428827]}}, {"type": "Feature", "properties": {"norad_id": 34761, "name": "COSMOS 2251 DEB", "group": "cosmos-2251-debris", "lat": 29.21527751136888, "lon": 154.69696235555222, "alt_km": 781.4076620556125, "timestamp": "2025-12-22T23:36:21.111826+00:00", "meta": {"OBJECT_NAME": "COSMOS 2251 DEB", "OBJECT_ID": "1993-036AAF", "EPOCH": "2025-12-22T06:13:11.730720", "MEAN_MOTION": 14.38082113, "ECCENTRICITY": 0.00369228, "INCLINATION": 74.0285, "RA_OF_ASC_NODE": 345.2476, "ARG_OF_PERICENTER": 16.6856, "MEAN_ANOMALY": 343.5503, "EPHEMERIS_TYPE": 0, "CLASSIFICATION_TYPE": "U", "NORAD_CAT_ID": 34761, "ELEMENT_SET_NO": 999, "REV_AT_EPOCH": 87786, "BSTAR": 0.00058755109, "MEAN_MOTION_DOT": 1.768e-05, "MEAN_MOTION_DDOT": 0}, "tle": {"line1": "1 34761U 93036AAF 25356.25916355  .00001768  00000+0  58755-3 0  9993", "line2": "2 34761  74.0285 345.2476 0036922  16.6856 343.5503 14.38082113877864"}}, "geometry": {"type": "Point", "coordinates": [154.69696235555222, 29.21527751136888]}}, {"type": "Feature", "properties": {"norad_id": 34784, "name": "COSMOS 2251 DEB", "group": "cosmos-2251-debris", "lat": 39.95639677938202, "lon": 110.84524693955551, "alt_km": 656.05197218382, "timestamp": "2025-12-22T23:36:21.111836+00:00", "meta": {"OBJECT_NAME": "COSMOS 2251 DEB", "OBJECT_ID": "1993-036AAM", "EPOCH": "2025-12-22T03:15:24.680448", "MEAN_MOTION": 14.60818726, "ECCENTRICITY": 0.00491808, "INCLINATION": 74.0079, "RA_OF_ASC_NODE": 306.3699, "ARG_OF_PERICENTER": 112.8499, "MEAN_ANOMALY": 247.7872, "EPHEMERIS_TYPE": 0, "CLASSIFICATION_TYPE": "U", "NORAD_CAT_ID": 34784, "ELEMENT_SET_NO": 999, "REV_AT_EPOCH": 88672, "BSTAR": 0.00046694369, "MEAN_MOTION_DOT": 2.29e-05, "MEAN_MOTION_DDOT": 0}, "tle": {"line1": "1 34784U 93036AAM 25356.13570232  .00002290  00000+0  46694-3 0  9995", "line2": "2 34784  74.0079 306.3699 0049180 112.8499 247.7872 14.60818726886728"}}, "geometry": {"type": "Point", "coordinates": [110.84524693955551, 39.95639677938202]}}]}